[{"OBJECT_NAME":"FENGYUN 1C DEB","OBJECT_ID":"1999-025EY","EPOCH":"2026-03-15T05:35:02.406336","MEAN_MOTION":13.83437323,"ECCENTRICITY":0.01474226,"INCLINATION":98.939,"RA_OF_ASC_NODE":235.7579,"ARG_OF_PERICENTER":161.1525,"MEAN_ANOMALY":14.5328,"EPHEMERIS_TYPE":0,"CLASSIFICATION_TYPE":"U","NORAD_CAT_ID":29854,"ELEMENT_SET_NO":999,"REV_AT_EPOCH":96622,"BSTAR":0.00037533738,"MEAN_MOTION_DOT":4.09e-6,"MEAN_MOTION_DDOT":0},{"OBJECT_NAME":"FENGYUN 1C DEB","OBJECT_ID":"1999-025EZ","EPOCH":"2026-03-14T19:09:47.388960","MEAN_MOTION":14.02404897,"ECCENTRICITY":0.01785138,"INCLINATION":98.185,"RA_OF_ASC_NODE":11.1669,"ARG_OF_PERICENTER":143.5538,"MEAN_ANOMALY":245.7479,"EPHEMERIS_TYPE":0,"CLASSIFICATION_TYPE":"U","NORAD_CAT_ID":29855,"ELEMENT_SET_NO":999,"REV_AT_EPOCH":97002,"BSTAR":0.0015923533,"MEAN_MOTION_DOT":2.778e-5,"MEAN_MOTION_DDOT":0},{"OBJECT_NAME":"FENGYUN 1C DEB","OBJECT_ID":"1999-025FA","EPOCH":"2026-03-15T05:27:58.554720","MEAN_MOTION":14.52084798,"ECCENTRICITY":0.0247546,"INCLINATION":98.6813,"RA_OF_ASC_NODE":176.146,"ARG_OF_PERICENTER":17.9226,"MEAN_ANOMALY":37.0896,"EPHEMERIS_TYPE":0,"CLASSIFICATION_TYPE":"U","NORAD_CAT_ID":29856,"ELEMENT_SET_NO":999,"REV_AT_EPOCH":97715,"BSTAR":0.0023845889,"MEAN_MOTION_DOT":0.00014401,"MEAN_MOTION_DDOT":0},{"OBJECT_NAME":"FENGYUN 1C DEB","OBJECT_ID":"1999-025FB","EPOCH":"2026-03-14T22:50:56.126400","MEAN_MOTION":13.82234158,"ECCENTRICITY":0.01937151,"INCLINATION":98.4249,"RA_OF_ASC_NODE":76.5538,"ARG_OF_PERICENTER":43.0787,"MEAN_ANOMALY":318.5348,"EPHEMERIS_TYPE":0,"CLASSIFICATION_TYPE":"U","NORAD_CAT_ID":29857,"ELEMENT_SET_NO":999,"REV_AT_EPOCH":96049,"BSTAR":0.0019886904,"MEAN_MOTION_DOT":2.439e-5,"MEAN_MOTION_DDOT":0},{"OBJECT_NAME":"FENGYUN 1C DEB","OBJECT_ID":"1999-025FC","EPOCH":"2026-03-15T06:11:51.441792","MEAN_MOTION":13.78085948,"ECCENTRICITY":0.0201102,"INCLINATION":99.2081,"RA_OF_ASC_NODE":178.1914,"ARG_OF_PERICENTER":178.9861,"MEAN_ANOMALY":238.773,"EPHEMERIS_TYPE":0,"CLASSIFICATION_TYPE":"U","NORAD_CAT_ID":29858,"ELEMENT_SET_NO":999,"REV_AT_EPOCH":95828,"BSTAR":0.0015124535,"MEAN_MOTION_DOT":1.724e-5,"MEAN_MOTION_DDOT":0},{"OBJECT_NAME":"FENGYUN 1C DEB","OBJECT_ID":"1999-025FD","EPOCH":"2026-03-15T01:43:55.824096","MEAN_MOTION":13.74489188,"ECCENTRICITY":0.02930735,"INCLINATION":98.3396,"RA_OF_ASC_NODE":262.2404,"ARG_OF_PERICENTER":323.2331,"MEAN_ANOMALY":34.9032,"EPHEMERIS_TYPE":0,"CLASSIFICATION_TYPE":"U","NORAD_CAT_ID":29859,"ELEMENT_SET_NO":999,"REV_AT_EPOCH":95248,"BSTAR":0.0015082539,"MEAN_MOTION_DOT":1.911e-5,"MEAN_MOTION_DDOT":0},{"OBJECT_NAME":"FENGYUN 1C DEB","OBJECT_ID":"1999-025FE","EPOCH":"2026-03-15T00:55:45.985152","MEAN_MOTION":13.78058394,"ECCENTRICITY":0.02229837,"INCLINATION":98.6071,"RA_OF_ASC_NODE":104.4833,"ARG_OF_PERICENTER":95.4897,"MEAN_ANOMALY":327.8755,"EPHEMERIS_TYPE":0,"CLASSIFICATION_TYPE":"U","NORAD_CAT_ID":29860,"ELEMENT_SET_NO":999,"REV_AT_EPOCH":95410,"BSTAR":0.0023672485,"MEAN_MOTION_DOT":2.825e-5,"MEAN_MOTION_DDOT":0},{"OBJECT_NAME":"FENGYUN 1C DEB","OBJECT_ID":"1999-025FK","EPOCH":"2026-03-15T06:44:20.954976","MEAN_MOTION":14.84217356,"ECCENTRICITY":0.01117074,"INCLINATION":98.9212,"RA_OF_ASC_NODE":0.7888,"ARG_OF_PERICENTER":207.9758,"MEAN_ANOMALY":282.0983,"EPHEMERIS_TYPE":0,"CLASSIFICATION_TYPE":"U","NORAD_CAT_ID":29865,"ELEMENT_SET_NO":999,"REV_AT_EPOCH":2130,"BSTAR":0.00069927142,"MEAN_MOTION_DOT":6.469e-5,"MEAN_MOTION_DDOT":0},{"OBJECT_NAME":"FENGYUN 1C DEB","OBJECT_ID":"1999-025FL","EPOCH":"2026-03-15T05:02:45.271680","MEAN_MOTION":14.64797099,"ECCENTRICITY":0.0192167,"INCLINATION":98.0474,"RA_OF_ASC_NODE":62.8728,"ARG_OF_PERICENTER":283.4265,"MEAN_ANOMALY":138.7961,"EPHEMERIS_TYPE":0,"CLASSIFICATION_TYPE":"U","NORAD_CAT_ID":29866,"ELEMENT_SET_NO":999,"REV_AT_EPOCH":1680,"BSTAR":0.00035934249,"MEAN_MOTION_DOT":2.454e-5,"MEAN_MOTION_DDOT":0},{"OBJECT_NAME":"FENGYUN 1C DEB","OBJECT_ID":"1999-025FN","EPOCH":"2026-03-15T01:33:59.779872","MEAN_MOTION":14.79963224,"ECCENTRICITY":0.01935138,"INCLINATION":97.935,"RA_OF_ASC_NODE":123.75,"ARG_OF_PERICENTER":64.8226,"MEAN_ANOMALY":0.5055,"EPHEMERIS_TYPE":0,"CLASSIFICATION_TYPE":"U","NORAD_CAT_ID":29868,"ELEMENT_SET_NO":999,"REV_AT_EPOCH":1660,"BSTAR":0.00081815603,"MEAN_MOTION_DOT":8.465e-5,"MEAN_MOTION_DDOT":0},{"OBJECT_NAME":"FENGYUN 1C DEB","OBJECT_ID":"1999-025FP","EPOCH":"2026-03-14T20:06:02.268000","MEAN_MOTION":14.371235,"ECCENTRICITY":0.00878332,"INCLINATION":98.8809,"RA_OF_ASC_NODE":12.0179,"ARG_OF_PERICENTER":98.6658,"MEAN_ANOMALY":332.4056,"EPHEMERIS_TYPE":0,"CLASSIFICATION_TYPE":"U","NORAD_CAT_ID":29869,"ELEMENT_SET_NO":999,"REV_AT_EPOCH":138,"BSTAR":0.00035005447,"MEAN_MOTION_DOT":1.04e-5,"MEAN_MOTION_DDOT":0},{"OBJECT_NAME":"FENGYUN 1C DEB","OBJECT_ID":"1999-025FQ","EPOCH":"2026-03-14T22:14:51.910080","MEAN_MOTION":14.29026212,"ECCENTRICITY":0.0118903,"INCLINATION":98.4746,"RA_OF_ASC_NODE":47.2029,"ARG_OF_PERICENTER":281.603,"MEAN_ANOMALY":142.1204,"EPHEMERIS_TYPE":0,"CLASSIFICATION_TYPE":"U","NORAD_CAT_ID":29870,"ELEMENT_SET_NO":999,"REV_AT_EPOCH":99910,"BSTAR":7.858537e-5,"MEAN_MOTION_DOT":1.7e-6,"MEAN_MOTION_DDOT":0},{"OBJECT_NAME":"FENGYUN 1C DEB","OBJECT_ID":"1999-025FR","EPOCH":"2026-03-14T20:53:56.750208","MEAN_MOTION":14.43388027,"ECCENTRICITY":0.00563112,"INCLINATION":98.9835,"RA_OF_ASC_NODE":36.8895,"ARG_OF_PERICENTER":193.8837,"MEAN_ANOMALY":221.4049,"EPHEMERIS_TYPE":0,"CLASSIFICATION_TYPE":"U","NORAD_CAT_ID":29871,"ELEMENT_SET_NO":999,"REV_AT_EPOCH":30,"BSTAR":0.00080823072,"MEAN_MOTION_DOT":2.732e-5,"MEAN_MOTION_DDOT":0},{"OBJECT_NAME":"FENGYUN 1C DEB","OBJECT_ID":"1999-025FS","EPOCH":"2026-03-13T11:23:44.104128","MEAN_MOTION":14.39419617,"ECCENTRICITY":0.02355327,"INCLINATION":98.3417,"RA_OF_ASC_NODE":91.0943,"ARG_OF_PERICENTER":40.8442,"MEAN_ANOMALY":321.0135,"EPHEMERIS_TYPE":0,"CLASSIFICATION_TYPE":"U","NORAD_CAT_ID":29872,"ELEMENT_SET_NO":999,"REV_AT_EPOCH":99897,"BSTAR":0.00087818445,"MEAN_MOTION_DOT":3.738e-5,"MEAN_MOTION_DDOT":0},{"OBJECT_NAME":"FENGYUN 1C DEB","OBJECT_ID":"1999-025FT","EPOCH":"2026-03-15T05:01:19.503264","MEAN_MOTION":13.9825769,"ECCENTRICITY":0.00918179,"INCLINATION":99.4352,"RA_OF_ASC_NODE":301.9313,"ARG_OF_PERICENTER":307.6059,"MEAN_ANOMALY":180.6478,"EPHEMERIS_TYPE":0,"CLASSIFICATION_TYPE":"U","NORAD_CAT_ID":29873,"ELEMENT_SET_NO":999,"REV_AT_EPOCH":97607,"BSTAR":0.00037942206,"MEAN_MOTION_DOT":5.13e-6,"MEAN_MOTION_DDOT":0},{"OBJECT_NAME":"FENGYUN 1C DEB","OBJECT_ID":"1999-025FU","EPOCH":"2026-03-15T05:39:48.920832","MEAN_MOTION":14.30321009,"ECCENTRICITY":0.01019574,"INCLINATION":98.3778,"RA_OF_ASC_NODE":332.6421,"ARG_OF_PERICENTER":75.9363,"MEAN_ANOMALY":48.2834,"EPHEMERIS_TYPE":0,"CLASSIFICATION_TYPE":"U","NORAD_CAT_ID":29874,"ELEMENT_SET_NO":999,"REV_AT_EPOCH":98169,"BSTAR":0.0026437353,"MEAN_MOTION_DOT":7.228e-5,"MEAN_MOTION_DDOT":0}]
