FENGYUN 1C DEB          
1 29854U 99025EY  26074.23266674  .00000409  00000+0  37534-3 0  9995
2 29854  98.9390 235.7579 0147422 161.1525  14.5328 13.83437323966222
FENGYUN 1C DEB          
1 29855U 99025EZ  26073.79846515  .00002778  00000+0  15924-2 0  9993
2 29855  98.1850  11.1669 0178513 143.5538 245.7479 14.02404897970025
FENGYUN 1C DEB          
1 29856U 99025FA  26074.22776105  .00014401  00000+0  23846-2 0  9998
2 29856  98.6813 176.1460 0247546  17.9226  37.0896 14.52084798977157
FENGYUN 1C DEB          
1 29857U 99025FB  26073.95203850  .00002439  00000+0  19887-2 0  9998
2 29857  98.4249  76.5538 0193715  43.0787 318.5348 13.82234158960495
FENGYUN 1C DEB          
1 29858U 99025FC  26074.25823428  .00001724  00000+0  15125-2 0  9999
2 29858  99.2081 178.1914 0201102 178.9861 238.7730 13.78085948958285
FENGYUN 1C DEB          
1 29859U 99025FD  26074.07217389  .00001911  00000+0  15083-2 0  9994
2 29859  98.3396 262.2404 0293073 323.2331  34.9032 13.74489188952486
FENGYUN 1C DEB          
1 29860U 99025FE  26074.03872668  .00002825  00000+0  23672-2 0  9997
2 29860  98.6071 104.4833 0222983  95.4897 327.8755 13.78058394954103
FENGYUN 1C DEB          
1 29865U 99025FK  26074.28079809  .00006469  00000+0  69927-3 0  9997
2 29865  98.9212   0.7888 0111707 207.9758 282.0983 14.84217356 21308
FENGYUN 1C DEB          
1 29866U 99025FL  26074.21024620  .00002454  00000+0  35934-3 0  9993
2 29866  98.0474  62.8728 0192167 283.4265 138.7961 14.64797099 16800
FENGYUN 1C DEB          
1 29868U 99025FN  26074.06527523  .00008465  00000+0  81816-3 0  9996
2 29868  97.9350 123.7500 0193513  64.8226   0.5055 14.79963224 16601
FENGYUN 1C DEB          
1 29869U 99025FP  26073.83752625  .00001040  00000+0  35005-3 0  9995
2 29869  98.8809  12.0179 0087833  98.6658 332.4056 14.37123500  1380
FENGYUN 1C DEB          
1 29870U 99025FQ  26073.92698970  .00000170  00000+0  78585-4 0  9993
2 29870  98.4746  47.2029 0118903 281.6030 142.1204 14.29026212999103
FENGYUN 1C DEB          
1 29871U 99025FR  26073.87079572  .00002732  00000+0  80823-3 0  9992
2 29871  98.9835  36.8895 0056311 193.8837 221.4049 14.43388027   300
FENGYUN 1C DEB          
1 29872U 99025FS  26072.47481602  .00003738  00000+0  87818-3 0  9997
2 29872  98.3417  91.0943 0235532  40.8442 321.0135 14.39419617998972
FENGYUN 1C DEB          
1 29873U 99025FT  26074.20925351  .00000513  00000+0  37942-3 0  9996
2 29873  99.4352 301.9313 0091817 307.6059 180.6478 13.98257690976072
FENGYUN 1C DEB          
1 29874U 99025FU  26074.23598288  .00007228  00000+0  26437-2 0  9991
2 29874  98.3778 332.6421 0101957  75.9363  48.2834 14.30321009981696
